{"fetched_at":"2026-03-29T02:12:04Z","count":15717,"tles":[{"name":"STARLINK-5383","line1":"1 54827U 22177H   26086.92037252  .00098082  00000+0  45411-2 0  9990","line2":"2 54827  43.0017  32.9203 0001171 274.3723  85.6992 15.19063761179724","category":"Starlink"}]}