{
  "norad_id": 54827,
  "name": "STARLINK-5383",
  "history": [
    {
      "epoch": "2026-03-27T22:05:20.185728",
      "apogee_km": 509.4752860311328,
      "perigee_km": 507.86239610315533,
      "latitude_deg": 13.742351856898564,
      "longitude_deg": 15.055761920055375,
      "semi_major_axis_km": 6886.805841067144,
      "eccentricity": 0.0001171,
      "inclination_deg": 43.0017,
      "raan_deg": 32.9203,
      "arg_perigee_deg": 274.3723,
      "mean_anomaly_deg": 85.6992,
      "mean_motion_rev_day": 15.19063761
    }
  ]
}